{"type": "FeatureCollection", "features": [ {"type": "Feature", "properties": {"norad_id": 37867, "name": "COSMOS 2476 (744)", "group": "gnss", "lat": -41.41363176656172, "lon": 54.7607732518116, "alt_km": 19122.486225698245, "timestamp": "2025-12-23T09:49:07.324874+00:00", "meta": {"OBJECT_NAME": "COSMOS 2476 (744)", "OBJECT_ID": "2011-064A", "EPOCH": "2025-12-19T06:05:26.552256", "MEAN_MOTION": 2.13103916, "ECCENTRICITY": 0.0024321, "INCLINATION": 65.1662, "RA_OF_ASC_NODE": 78.9509, "ARG_OF_PERICENTER": 234.6548, "MEAN_ANOMALY": 130.4776, "EPHEMERIS_TYPE": 0, "CLASSIFICATION_TYPE": "U", "NORAD_CAT_ID": 37867, "ELEMENT_SET_NO": 999, "REV_AT_EPOCH": 10993, "BSTAR": 0, "MEAN_MOTION_DOT": -3e-07, "MEAN_MOTION_DDOT": 0}, "tle": {"line1": "1 37867U 11064A   25353.25377954 -.00000030  00000+0  00000+0 0  9995", "line2": "2 37867  65.1662  78.9509 0024321 234.6548 130.4776  2.13103916109937"}}, "geometry": {"type": "Point", "coordinates": [54.7607732518116, -41.41363176656172]}}, {"type": "Feature", "properties": {"norad_id": 37868, "name": "COSMOS 2477 (745)", "group": "gnss", "lat": 41.06845988671921, "lon": -124.84634308425333, "alt_km": 19136.132022922066, "timestamp": "2025-12-23T09:49:07.324886+00:00", "meta": {"OBJECT_NAME": "COSMOS 2477 (745)", "OBJECT_ID": "2011-064B", "EPOCH": "2025-12-22T10:30:41.821056", "MEAN_MOTION": 2.1310305, "ECCENTRICITY": 0.00215605, "INCLINATION": 65.1736, "RA_OF_ASC_NODE": 78.921, "ARG_OF_PERICENTER": 235.3633, "MEAN_ANOMALY": 233.4933, "EPHEMERIS_TYPE": 0, "CLASSIFICATION_TYPE": "U", "NORAD_CAT_ID": 37868, "ELEMENT_SET_NO": 999, "REV_AT_EPOCH": 10999, "BSTAR": 0, "MEAN_MOTION_DOT": -3e-08, "MEAN_MOTION_DDOT": 0}, "tle": {"line1": "1 37868U 11064B   25356.43798404 -.00000003  00000+0  00000+0 0  9996", "line2": "2 37868  65.1736  78.9210 0021560 235.3633 233.4933  2.13103050109998"}}, "geometry": {"type": "Point", "coordinates": [-124.84634308425333, 41.06845988671921]}}, {"type": "Feature", "properties": {"norad_id": 37869, "name": "COSMOS 2475 (743)", "group": "gnss", "lat": 65.20018262785412, "lon": 168.0750322055172, "alt_km": 19186.702513122775, "timestamp": "2025-12-23T09:49:07.324906+00:00", "meta": {"OBJECT_NAME": "COSMOS 2475 (743)", "OBJECT_ID": "2011-064C", "EPOCH": "2025-12-22T12:35:30.005376", "MEAN_MOTION": 2.13101682, "ECCENTRICITY": 0.00266922, "INCLINATION": 65.1807, "RA_OF_ASC_NODE": 78.9382, "ARG_OF_PERICENTER": 249.0834, "MEAN_ANOMALY": 242.1615, "EPHEMERIS_TYPE": 0, "CLASSIFICATION_TYPE": "U", "NORAD_CAT_ID": 37869, "ELEMENT_SET_NO": 999, "REV_AT_EPOCH": 11000, "BSTAR": 0, "MEAN_MOTION_DOT": -2e-08, "MEAN_MOTION_DDOT": 0}, "tle": {"line1": "1 37869U 11064C   25356.52465284 -.00000002  00000+0  00000+0 0  9993", "line2": "2 37869  65.1807  78.9382 0026692 249.0834 242.1615  2.13101682110001"}}, "geometry": {"type": "Point", "coordinates": [168.0750322055172, 65.20018262785412]}}, {"type": "Feature", "properties": {"norad_id": 37948, "name": "BEIDOU-2 IGSO-5 (C10)", "group": "gnss", "lat": 39.5486469631823, "lon": -38.33116254576464, "alt_km": 36219.172439868256, "timestamp": "2025-12-23T09:49:07.324919+00:00", "meta": {"OBJECT_NAME": "BEIDOU-2 IGSO-5 (C10)", "OBJECT_ID": "2011-073A", "EPOCH": "2025-12-22T17:56:38.660352", "MEAN_MOTION": 1.00289046, "ECCENTRICITY": 0.01097824, "INCLINATION": 48.0017, "RA_OF_ASC_NODE": 273.7363, "ARG_OF_PERICENTER": 222.2409, "MEAN_ANOMALY": 318.2771, "EPHEMERIS_TYPE": 0, "CLASSIFICATION_TYPE": "U", "NORAD_CAT_ID": 37948, "ELEMENT_SET_NO": 999, "REV_AT_EPOCH": 5136, "BSTAR": 0, "MEAN_MOTION_DOT": -1.4e-06, "MEAN_MOTION_DDOT": 0}, "tle": {"line1": "1 37948U 11073A   25356.74766968 -.00000140  00000+0  00000+0 0  9991", "line2": "2 37948  48.0017 273.7363 0109782 222.2409 318.2771  1.00289046 51366"}}, "geometry": {"type": "Point", "coordinates": [-38.33116254576464, 39.5486469631823]}}, {"type": "Feature", "properties": {"norad_id": 37951, "name": "LUCH 5A (SDCM/PRN 140)", "group": "gnss", "lat": -4.119030072376654, "lon": 46.81535901830877, "alt_km": 35803.88621681357, "timestamp": "2025-12-23T09:49:07.324931+00:00", "meta": {"OBJECT_NAME": "LUCH 5A (SDCM/PRN 140)", "OBJECT_ID": "2011-074B", "EPOCH": "2025-12-22T22:31:15.671712", "MEAN_MOTION": 1.00269053, "ECCENTRICITY": 0.00051612, "INCLINATION": 8.3041, "RA_OF_ASC_NODE": 76.4345, "ARG_OF_PERICENTER": 191.0716, "MEAN_ANOMALY": 329.0874, "EPHEMERIS_TYPE": 0, "CLASSIFICATION_TYPE": "U", "NORAD_CAT_ID": 37951, "ELEMENT_SET_NO": 999, "REV_AT_EPOCH": 5128, "BSTAR": 0, "MEAN_MOTION_DOT": -3.2e-07, "MEAN_MOTION_DDOT": 0}, "tle": {"line1": "1 37951U 11074B   25356.93837583 -.00000032  00000+0  00000+0 0  9999", "line2": "2 37951   8.3041  76.4345 0005161 191.0716 329.0874  1.00269053 51285"}}, "geometry": {"type": "Point", "coordinates": [46.81535901830877, -4.119030072376654]}}, {"type": "Feature", "properties": {"norad_id": 38091, "name": "BEIDOU-2 G5 (C05)", "group": "gnss", "lat": -2.3352197664335157, "lon": -61.82821843680299, "alt_km": 35732.25619187557, "timestamp": "2025-12-23T09:49:07.324943+00:00", "meta": {"OBJECT_NAME": "BEIDOU-2 G5 (C05)", "OBJECT_ID": "2012-008A", "EPOCH": "2025-12-19T16:03:31.750272", "MEAN_MOTION": 1.00268606, "ECCENTRICITY": 0.0012969, "INCLINATION": 3.1258, "RA_OF_ASC_NODE": 70.6861, "ARG_OF_PERICENTER": 231.3522, "MEAN_ANOMALY": 86.1393, "EPHEMERIS_TYPE": 0, "CLASSIFICATION_TYPE": "U", "NORAD_CAT_ID": 38091, "ELEMENT_SET_NO": 999, "REV_AT_EPOCH": 5056, "BSTAR": 0, "MEAN_MOTION_DOT": 7.9e-07, "MEAN_MOTION_DDOT": 0}, "tle": {"line1": "1 38091U 12008A   25353.66911748  .00000079  00000+0  00000+0 0  9996", "line2": "2 38091   3.1258  70.6861 0012969 231.3522  86.1393  1.00268606 50560"}}, "geometry": {"type": "Point", "coordinates": [-61.82821843680299, -2.3352197664335157]}}, {"type": "Feature", "properties": {"norad_id": 38250, "name": "BEIDOU-2 M3 (C11)", "group": "gnss", "lat": -38.92409644438551, "lon": 163.89584715685945, "alt_km": 21486.124743834305, "timestamp": "2025-12-23T09:49:07.324956+00:00", "meta": {"OBJECT_NAME": "BEIDOU-2 M3 (C11)", "OBJECT_ID": "2012-018A", "EPOCH": "2025-12-21T23:49:10.133760", "MEAN_MOTION": 1.86230181, "ECCENTRICITY": 0.00240993, "INCLINATION": 55.9124, "RA_OF_ASC_NODE": 310.8468, "ARG_OF_PERICENTER": 275.3188, "MEAN_ANOMALY": 84.4018, "EPHEMERIS_TYPE": 0, "CLASSIFICATION_TYPE": "U", "NORAD_CAT_ID": 38250, "ELEMENT_SET_NO": 999, "REV_AT_EPOCH": 9264, "BSTAR": 0, "MEAN_MOTION_DOT": -6e-07, "MEAN_MOTION_DDOT": 0}, "tle": {"line1": "1 38250U 12018A   25355.99247840 -.00000060  00000+0  00000+0 0  9998", "line2": "2 38250  55.9124 310.8468 0024099 275.3188  84.4018  1.86230181 92640"}}, "geometry": {"type": "Point", "coordinates": [163.89584715685945, -38.92409644438551]}}, {"type": "Feature", "properties": {"norad_id": 38251, "name": "BEIDOU-2 M4 (C12)", "group": "gnss", "lat": -55.48307266138471, "lon": -130.87475814339425, "alt_km": 21491.60190166271, "timestamp": "2025-12-23T09:49:07.324967+00:00", "meta": {"OBJECT_NAME": "BEIDOU-2 M4 (C12)", "OBJECT_ID": "2012-018B", "EPOCH": "2025-12-21T22:11:20.549760", "MEAN_MOTION": 1.86229896, "ECCENTRICITY": 0.00152556, "INCLINATION": 55.8135, "RA_OF_ASC_NODE": 310.0771, "ARG_OF_PERICENTER": 279.1681, "MEAN_ANOMALY": 80.6551, "EPHEMERIS_TYPE": 0, "CLASSIFICATION_TYPE": "U", "NORAD_CAT_ID": 38251, "ELEMENT_SET_NO": 999, "REV_AT_EPOCH": 9264, "BSTAR": 0, "MEAN_MOTION_DOT": -6e-07, "MEAN_MOTION_DDOT": 0}, "tle": {"line1": "1 38251U 12018B   25355.92454340 -.00000060  00000+0  00000+0 0  9997", "line2": "2 38251  55.8135 310.0771 0015255 279.1681  80.6551  1.86229896 92646"}}, "geometry": {"type": "Point", "coordinates": [-130.87475814339425, -55.48307266138471]}}, {"type": "Feature", "properties": {"norad_id": 38652, "name": "SES-5 (EGNOS/PRN 136)", "group": "gnss", "lat": -0.06518093743544455, "lon": -115.55711995436235, "alt_km": 35779.49309263564, "timestamp": "2025-12-23T09:49:07.324985+00:00", "meta": {"OBJECT_NAME": "SES-5 (EGNOS/PRN 136)", "OBJECT_ID": "2012-036A", "EPOCH": "2025-12-22T03:54:38.524896", "MEAN_MOTION": 1.00271214, "ECCENTRICITY": 0.00018162, "INCLINATION": 0.059, "RA_OF_ASC_NODE": 304.6524, "ARG_OF_PERICENTER": 329.614, "MEAN_ANOMALY": 240.347, "EPHEMERIS_TYPE": 0, "CLASSIFICATION_TYPE": "U", "NORAD_CAT_ID": 38652, "ELEMENT_SET_NO": 999, "REV_AT_EPOCH": 4268, "BSTAR": 0, "MEAN_MOTION_DOT": 5.6e-07, "MEAN_MOTION_DDOT": 0}, "tle": {"line1": "1 38652U 12036A   25356.16294589  .00000056  00000+0  00000+0 0  9990", "line2": "2 38652   0.0590 304.6524 0001816 329.6140 240.3470  1.00271214 42683"}}, "geometry": {"type": "Point", "coordinates": [-115.55711995436235, -0.06518093743544455]}}, {"type": "Feature", "properties": {"norad_id": 38775, "name": "BEIDOU-2 M6 (C14)", "group": "gnss", "lat": 51.84298578771238, "lon": -168.98372277725164, "alt_km": 21540.675891099017, "timestamp": "2025-12-23T09:49:07.325006+00:00", "meta": {"OBJECT_NAME": "BEIDOU-2 M6 (C14)", "OBJECT_ID": "2012-050B", "EPOCH": "2025-12-22T04:08:12.924384", "MEAN_MOTION": 1.86230887, "ECCENTRICITY": 0.0011428, "INCLINATION": 56.3862, "RA_OF_ASC_NODE": 68.7545, "ARG_OF_PERICENTER": 343.2335, "MEAN_ANOMALY": 16.7787, "EPHEMERIS_TYPE": 0, "CLASSIFICATION_TYPE": "U", "NORAD_CAT_ID": 38775, "ELEMENT_SET_NO": 999, "REV_AT_EPOCH": 9001, "BSTAR": 0, "MEAN_MOTION_DOT": -3e-07, "MEAN_MOTION_DDOT": 0}, "tle": {"line1": "1 38775U 12050B   25356.17237181 -.00000030  00000+0  00000+0 0  9991", "line2": "2 38775  56.3862  68.7545 0011428 343.2335  16.7787  1.86230887 90015"}}, "geometry": {"type": "Point", "coordinates": [-168.98372277725164, 51.84298578771238]}}]}